{
  "type": "FeatureCollection",
  "features": [
    {
      "type": "Feature",
      "properties": {
        "norad_id": 66410,
        "name": "CHUTIAN-2 B",
        "group": "last-30-days",
        "lat": -48.300429782222146,
        "lon": 55.013792047942644,
        "alt_km": 732.6181027383918,
        "timestamp": "2025-12-06T16:45:41.514509+00:00",
        "meta_object_name": "CHUTIAN-2 B",
        "meta_object_id": "2025-256B",
        "meta_epoch": "2025-12-06T07:03:26.496288",
        "meta_mean_motion": 14.51013421,
        "meta_eccentricity": 0.00134353,
        "meta_inclination": 98.2803,
        "meta_ra_of_asc_node": 45.2085,
        "meta_arg_of_pericenter": 201.0767,
        "meta_mean_anomaly": 158.9876,
        "meta_ephemeris_type": 0,
        "meta_classification_type": "U",
        "meta_norad_cat_id": 66410,
        "meta_element_set_no": 999,
        "meta_rev_at_epoch": 394,
        "meta_bstar": 0.00035272683,
        "meta_mean_motion_dot": 1.353e-05,
        "meta_mean_motion_ddot": 0,
        "tle_line1": "1 66410U 25256B   25340.29405667  .00001353  00000+0  35273-3 0  9994",
        "tle_line2": "2 66410  98.2803  45.2085 0013435 201.0767 158.9876 14.51013421  3944"
      },
      "geometry": {
        "type": "Point",
        "coordinates": [
          55.013792047942644,
          -48.300429782222146
        ]
      }
    },
    {
      "type": "Feature",
      "properties": {
        "norad_id": 66411,
        "name": "ZK-1A R/B",
        "group": "last-30-days",
        "lat": -69.70372977822387,
        "lon": -155.27802532597366,
        "alt_km": 414.16610882812256,
        "timestamp": "2025-12-06T16:45:41.514519+00:00",
        "meta_object_name": "ZK-1A R/B",
        "meta_object_id": "2025-256C",
        "meta_epoch": "2025-12-06T01:14:20.422464",
        "meta_mean_motion": 15.01738444,
        "meta_eccentricity": 0.02290588,
        "meta_inclination": 98.3238,
        "meta_ra_of_asc_node": 47.3485,
        "meta_arg_of_pericenter": 267.3277,
        "meta_mean_anomaly": 90.1709,
        "meta_ephemeris_type": 0,
        "meta_classification_type": "U",
        "meta_norad_cat_id": 66411,
        "meta_element_set_no": 999,
        "meta_rev_at_epoch": 404,
        "meta_bstar": 0.00091584319,
        "meta_mean_motion_dot": 0.00021074,
        "meta_mean_motion_ddot": 0,
        "tle_line1": "1 66411U 25256C   25340.05162526  .00021074  00000+0  91584-3 0  9992",
        "tle_line2": "2 66411  98.3238  47.3485 0229058 267.3277  90.1709 15.01738444  4045"
      },
      "geometry": {
        "type": "Point",
        "coordinates": [
          -155.27802532597366,
          -69.70372977822387
        ]
      }
    },
    {
      "type": "Feature",
      "properties": {
        "norad_id": 66412,
        "name": "HULIANWANG DIGUI 13A",
        "group": "last-30-days",
        "lat": 32.564277063207314,
        "lon": 74.99502479827609,
        "alt_km": 821.4148166687064,
        "timestamp": "2025-12-06T16:45:41.514530+00:00",
        "meta_object_name": "HULIANWANG DIGUI 13A",
        "meta_object_id": "2025-258A",
        "meta_epoch": "2025-12-05T21:34:54.424128",
        "meta_mean_motion": 14.22483467,
        "meta_eccentricity": 0.0013174,
        "meta_inclination": 50.0056,
        "meta_ra_of_asc_node": 290.773,
        "meta_arg_of_pericenter": 333.7456,
        "meta_mean_anomaly": 26.2788,
        "meta_ephemeris_type": 0,
        "meta_classification_type": "U",
        "meta_norad_cat_id": 66412,
        "meta_element_set_no": 999,
        "meta_rev_at_epoch": 368,
        "meta_bstar": 0.00033228063,
        "meta_mean_motion_dot": 5.88e-06,
        "meta_mean_motion_ddot": 0,
        "tle_line1": "1 66412U 25258A   25339.89924102  .00000588  00000+0  33228-3 0  9999",
        "tle_line2": "2 66412  50.0056 290.7730 0013174 333.7456  26.2788 14.22483467  3683"
      },
      "geometry": {
        "type": "Point",
        "coordinates": [
          74.99502479827609,
          32.564277063207314
        ]
      }
    },
    {
      "type": "Feature",
      "properties": {
        "norad_id": 66413,
        "name": "HULIANWANG DIGUI 13B",
        "group": "last-30-days",
        "lat": 49.84463111501872,
        "lon": 23.153848054698813,
        "alt_km": 814.9704562593151,
        "timestamp": "2025-12-06T16:45:41.514540+00:00",
        "meta_object_name": "HULIANWANG DIGUI 13B",
        "meta_object_id": "2025-258B",
        "meta_epoch": "2025-12-05T09:58:14.098080",
        "meta_mean_motion": 14.22286108,
        "meta_eccentricity": 0.00131872,
        "meta_inclination": 50.0013,
        "meta_ra_of_asc_node": 292.8683,
        "meta_arg_of_pericenter": 332.0634,
        "meta_mean_anomaly": 27.9569,
        "meta_ephemeris_type": 0,
        "meta_classification_type": "U",
        "meta_norad_cat_id": 66413,
        "meta_element_set_no": 999,
        "meta_rev_at_epoch": 361,
        "meta_bstar": 0.0003474057,
        "meta_mean_motion_dot": 6.19e-06,
        "meta_mean_motion_ddot": 0,
        "tle_line1": "1 66413U 25258B   25339.41544095  .00000619  00000+0  34741-3 0  9993",
        "tle_line2": "2 66413  50.0013 292.8683 0013187 332.0634  27.9569 14.22286108  3612"
      },
      "geometry": {
        "type": "Point",
        "coordinates": [
          23.153848054698813,
          49.84463111501872
        ]
      }
    },
    {
      "type": "Feature",
      "properties": {
        "norad_id": 66414,
        "name": "HULIANWANG DIGUI 13C",
        "group": "last-30-days",
        "lat": 45.682442650362134,
        "lon": 48.17873848355154,
        "alt_km": 817.7448384040372,
        "timestamp": "2025-12-06T16:45:41.514550+00:00",
        "meta_object_name": "HULIANWANG DIGUI 13C",
        "meta_object_id": "2025-258C",
        "meta_epoch": "2025-12-05T09:53:35.287008",
        "meta_mean_motion": 14.2244177,
        "meta_eccentricity": 0.00137409,
        "meta_inclination": 50.0052,
        "meta_ra_of_asc_node": 292.8676,
        "meta_arg_of_pericenter": 331.0235,
        "meta_mean_anomaly": 28.9914,
        "meta_ephemeris_type": 0,
        "meta_classification_type": "U",
        "meta_norad_cat_id": 66414,
        "meta_element_set_no": 999,
        "meta_rev_at_epoch": 361,
        "meta_bstar": 0.00035499636,
        "meta_mean_motion_dot": 6.38e-06,
        "meta_mean_motion_ddot": 0,
        "tle_line1": "1 66414U 25258C   25339.41221397  .00000638  00000+0  35500-3 0  9996",
        "tle_line2": "2 66414  50.0052 292.8676 0013740 331.0235  28.9914 14.22441770  3612"
      },
      "geometry": {
        "type": "Point",
        "coordinates": [
          48.17873848355154,
          45.682442650362134
        ]
      }
    },
    {
      "type": "Feature",
      "properties": {
        "norad_id": 66415,
        "name": "HULIANWANG DIGUI 13D",
        "group": "last-30-days",
        "lat": 26.090366236650052,
        "lon": 83.1249184276824,
        "alt_km": 821.1008999495061,
        "timestamp": "2025-12-06T16:45:41.514560+00:00",
        "meta_object_name": "HULIANWANG DIGUI 13D",
        "meta_object_id": "2025-258D",
        "meta_epoch": "2025-12-05T19:51:31.787136",
        "meta_mean_motion": 14.23026723,
        "meta_eccentricity": 0.00136315,
        "meta_inclination": 50.0049,
        "meta_ra_of_asc_node": 291.0607,
        "meta_arg_of_pericenter": 339.9094,
        "meta_mean_anomaly": 20.1281,
        "meta_ephemeris_type": 0,
        "meta_classification_type": "U",
        "meta_norad_cat_id": 66415,
        "meta_element_set_no": 999,
        "meta_rev_at_epoch": 367,
        "meta_bstar": 0.00032301441,
        "meta_mean_motion_dot": 5.74e-06,
        "meta_mean_motion_ddot": 0,
        "tle_line1": "1 66415U 25258D   25339.82745124  .00000574  00000+0  32301-3 0  9996",
        "tle_line2": "2 66415  50.0049 291.0607 0013631 339.9094  20.1281 14.23026723  3678"
      },
      "geometry": {
        "type": "Point",
        "coordinates": [
          83.1249184276824,
          26.090366236650052
        ]
      }
    },
    {
      "type": "Feature",
      "properties": {
        "norad_id": 66416,
        "name": "HULIANWANG DIGUI 13E",
        "group": "last-30-days",
        "lat": 42.108758149591104,
        "lon": 58.087770750727124,
        "alt_km": 817.7912206927476,
        "timestamp": "2025-12-06T16:45:41.514569+00:00",
        "meta_object_name": "HULIANWANG DIGUI 13E",
        "meta_object_id": "2025-258E",
        "meta_epoch": "2025-12-05T21:39:19.515744",
        "meta_mean_motion": 14.22215324,
        "meta_eccentricity": 0.00111953,
        "meta_inclination": 50.0052,
        "meta_ra_of_asc_node": 290.7863,
        "meta_arg_of_pericenter": 340.1554,
        "meta_mean_anomaly": 19.8921,
        "meta_ephemeris_type": 0,
        "meta_classification_type": "U",
        "meta_norad_cat_id": 66416,
        "meta_element_set_no": 999,
        "meta_rev_at_epoch": 368,
        "meta_bstar": 0.00039075783,
        "meta_mean_motion_dot": 7.14e-06,
        "meta_mean_motion_ddot": 0,
        "tle_line1": "1 66416U 25258E   25339.90230921  .00000714  00000+0  39076-3 0  9992",
        "tle_line2": "2 66416  50.0052 290.7863 0011195 340.1554  19.8921 14.22215324  3684"
      },
      "geometry": {
        "type": "Point",
        "coordinates": [
          58.087770750727124,
          42.108758149591104
        ]
      }
    }
  ]
}